[{"OBJECT_NAME":"STARLINK-4435","OBJECT_ID":"2022-099AP","EPOCH":"2026-03-09T21:46:55.623936","MEAN_MOTION":15.0565086,"ECCENTRICITY":6.72e-5,"INCLINATION":97.6016,"RA_OF_ASC_NODE":191.4245,"ARG_OF_PERICENTER":252.2483,"MEAN_ANOMALY":107.867,"EPHEMERIS_TYPE":0,"CLASSIFICATION_TYPE":"U","NORAD_CAT_ID":53502,"ELEMENT_SET_NO":999,"REV_AT_EPOCH":19608,"BSTAR":0.00010213444,"MEAN_MOTION_DOT":1.413e-5,"MEAN_MOTION_DDOT":0},{"OBJECT_NAME":"PEGASUS DEB","OBJECT_ID":"1994-029JY","EPOCH":"2026-03-09T23:11:54.295296","MEAN_MOTION":14.90653362,"ECCENTRICITY":0.0070631,"INCLINATION":82.0876,"RA_OF_ASC_NODE":46.3317,"ARG_OF_PERICENTER":279.2549,"MEAN_ANOMALY":134.3773,"EPHEMERIS_TYPE":0,"CLASSIFICATION_TYPE":"U","NORAD_CAT_ID":24197,"ELEMENT_SET_NO":999,"REV_AT_EPOCH":68196,"BSTAR":0.0004359638,"MEAN_MOTION_DOT":4.503e-5,"MEAN_MOTION_DDOT":0}]
